C/2009 T1 (McNaught),e,90.0143,54.4528,282.6461,1047,0.0000291,0.99404528,0.0000,10/07.5620/2009,2000,g  6.5,4.0
# From MPC 75711
P/2009 T2 (La Sagra),e,27.5152,215.7349,216.6034,7.730569,0.0458550,0.76549183,112.6564,09/30.0/2016,2000,g 14.0,4.0
# From MPC 82315
C/2009 T3 (LINEAR),e,148.6320,60.1625,32.4533,13421,0.0000006,0.99983068,0.0000,01/13.0992/2010,2000,g 12.5,4.0
# From MPC 70812
C/2009 U3 (Hill),e,51.0916,49.1095,77.8825,180.0183,0.0004081,0.99212374,0.0000,03/20.3171/2010,2000,g 13.0,4.0
# From MPC 75711
P/2009 U4 (McNaught),e,10.0808,55.3689,259.8672,5.076252,0.0861766,0.67491756,223.2343,09/30.0/2016,2000,g 14.0,4.0
# From MPC 82315
C/2009 U5 (Grauer),h,06/24.3295/2010,25.4578,121.0083,24.2268,1.004557,6.117864,2000,7.0,4.0
# From MPC 82315
C/2009 UG89 (Lemmon),h,12/12.9543/2010,130.0879,321.0541,60.5761,1.005343,3.933649,2000,9.0,4.0
# From MPC 72851
C/2009 W2 (Boattini),e,164.5083,199.6299,121.7150,9676,0.0000010,0.99928478,0.0000,05/07.0112/2010,2000,g  7.0,4.0
# From MPC 75711
P/2009 WX51 (Catalina),e,9.6000,31.6702,118.1106,3.075881,0.1827047,0.74097157,84.5494,09/30.0/2016,2000,g 19.0,2.0
# From MPC 82316
C/2009 Y1 (Catalina),e,107.3457,160.3507,127.2564,354.8880,0.0001474,0.99293480,0.0000,01/29.8296/2011,2000,g  9.0,4.0
# From MPC 74247
P/2009 Y2 (Kowalski),e,29.9739,262.0088,172.4355,6.538887,0.0589452,0.63768295,140.2975,09/30.0/2016,2000,g 13.0,4.0
# From MPC 69417
P/2010 A1 (Hill),e,10.3094,47.3278,13.3508,4.386320,0.1072886,0.55408489,280.0845,09/30.0/2016,2000,g 13.0,4.0
# From MPC 86226
P/2010 A2 (LINEAR),e,5.2562,320.2219,132.9095,2.290043,0.2844060,0.12443609,348.7839,09/30.0/2016,2000,g 15.5,4.0
# From MPC 75711
P/2010 A3 (Hill),e,14.9940,64.7313,41.4250,6.071955,0.0658736,0.73241709,156.1887,09/30.0/2016,2000,g 14.0,4.0
# From MPC 77403
C/2010 A4 (Siding Spring),e,96.7983,346.7379,271.6495,286.0167,0.0002038,0.99045713,0.0000,10/10.3311/2010,2000,g 12.5,4.0
# From MPC 72851
P/2010 A5 (LINEAR),e,5.7876,277.7428,306.9196,5.091365,0.0857932,0.66508431,201.9219,09/30.0/2016,2000,g 13.0,4.0
# From MPC 80896
C/2010 B1 (Cardinal),h,02/08.0266/2011,101.8827,277.2449,211.6806,1.000210,2.946626,2000,7.5,4.0
# From MPC 75712
P/2010 B2 (WISE),e,8.9385,0.8504,155.9634,3.106624,0.1799994,0.48096043,85.4245,09/30.0/2016,2000,g 17.0,4.0
# From MPC 75008
P/2010 C1 (Scotti),e,9.1399,141.8811,3.9921,7.088108,0.0522286,0.26088901,130.1417,09/30.0/2016,2000,g  9.5,4.0
# From MPC 75712
P/2010 D1 (WISE),e,9.6307,160.8088,226.1881,4.164407,0.1159776,0.35428984,308.3589,09/30.0/2016,2000,g 13.0,4.0
# From MPC 75008
P/2010 D2 (WISE),e,57.1217,319.8014,120.3858,6.711351,0.0566877,0.45138057,136.2634,09/30.0/2016,2000,g 16.0,4.0
# From MPC 84315
C/2010 D3 (WISE),e,76.3447,255.1275,304.5670,178032,0.0000000,0.99997618,0.0000,09/04.0261/2010,2000,g  9.0,4.0
# From MPC 76025
C/2010 D4 (WISE),e,105.7288,266.7733,44.3202,62.07262,0.0020154,0.88486603,5.5329,09/30.0/2016,2000,g  6.5,4.0
# From MPC 74248
C/2010 DG56 (WISE),e,160.4068,4.1713,318.4903,68.13862,0.0017523,0.97677536,0.0000,05/17.0049/2010,2000,g 16.0,4.0
# From MPC 70361
C/2010 E1 (Garradd),e,71.5971,169.1358,297.1769,112.9057,0.0008215,0.97628411,0.0000,11/05.9656/2009,2000,g 11.5,4.0
# From MPC 75009
P/2010 E2 (Jarnac),e,15.4724,177.8059,8.2594,8.619155,0.0389500,0.72275669,92.1031,09/30.0/2016,2000,g 14.0,4.0
# From MPC 70361
C/2010 E5 (Scotti),e,18.9090,16.9067,148.0042,24.95044,0.0079084,0.84398652,19.8017,09/30.0/2016,2000,g 10.5,4.0
# From MPC 72132
C/2010 F1 (Boattini),e,64.8496,344.2763,127.7430,69.68145,0.0016944,0.94823743,4.2649,09/30.0/2016,2000,g  9.5,4.0
# From MPC 82316
C/2010 F3 (Scotti),e,4.6502,157.3097,31.3700,64.11988,0.0019196,0.91500365,4.3141,09/30.0/2016,2000,g  8.5,4.0
# From MPC 82316
C/2010 FB87 (WISE-Garradd),e,107.7840,89.9762,265.0610,223.1285,0.0002957,0.98721462,0.0000,11/04.7565/2010,2000,g 10.0,4.0
# From MPC 70816
C/2010 G1 (Boattini),e,78.2988,287.4847,168.8299,544.0866,0.0000777,0.99776561,0.0000,04/02.2492/2010,2000,g 12.5,4.0
# From MPC 83142
C/2010 G2 (Hill),e,103.7642,246.9651,137.4695,93.95402,0.0010823,0.97890046,0.0000,09/01.8561/2011,2000,g  8.0,4.0
# From MPC 75292
C/2010 G3 (WISE),e,108.2533,313.7648,75.1707,995.0687,0.0000314,0.99505989,0.0000,04/07.1752/2010,2000,g  8.5,4.0
# From MPC 82316
C/2010 H1 (Garradd),e,36.6022,347.3544,233.7153,2401,0.0000084,0.99886084,0.0000,06/20.5910/2010,2000,g 13.0,4.0
# From MPC 72851
P/2010 H2 (Vales),e,14.2622,64.2953,129.6467,3.841456,0.1309062,0.19400717,313.9660,09/30.0/2016,2000,g  6.0,4.0
# From MPC 70361
P/2010 H3 (SOHO),e,23.8755,78.3128,24.8778,3.068578,0.1833573,0.98467058,0.0000,09/25.8045/2015,2000,g 20.0,2.0
# From MPC 73463
P/2010 H4 (Scotti),e,2.3228,44.7568,179.2976,6.581316,0.0583761,0.26894538,134.0109,09/30.0/2016,2000,g 10.5,4.0
# From MPC 74637
P/2010 H5 (Scotti),e,14.0873,24.7980,174.8388,7.136279,0.0517007,0.15658714,122.0397,09/30.0/2016,2000,g 13.0,2.0
# From MPC 71278
C/2010 J1 (Boattini),e,134.4619,254.6638,332.8219,35.98425,0.0045660,0.95301410,11.1017,09/30.0/2016,2000,g 12.0,4.0
# From MPC 75712
C/2010 J2 (McNaught),e,125.8673,311.8424,4.4318,1539,0.0000163,0.99780756,0.0000,06/02.1145/2010,2000,g  9.0,4.0
# From MPC 82316
P/2010 J3 (McMillan),e,13.2619,106.5215,157.3813,8.958467,0.0367581,0.72697559,81.9174,09/30.0/2016,2000,g 11.0,4.0
# From MPC 76025
P/2010 J5 (McNaught),e,7.3541,65.6385,148.4202,4.107049,0.1184157,0.08750962,300.8500,09/30.0/2016,2000,g 10.0,4.0
# From MPC 84315
P/2010 JC81 (WISE),e,38.6059,30.8326,12.6158,8.131875,0.0425028,0.77607846,84.4312,09/30.0/2016,2000,g  9.0,4.0
# From MPC 74248
C/2010 KW7 (WISE),e,147.0716,104.9766,332.6659,97.91279,0.0010173,0.97362423,0.0000,10/11.4224/2010,2000,g 15.0,2.0
# From MPC 83518
C/2010 L3 (Catalina),h,11/10.4592/2010,102.5062,38.2822,121.8289,1.001286,9.891139,2000,4.5,4.0
# From MPC 74248
C/2010 L4 (WISE),e,102.8329,125.5191,95.6557,79.98710,0.0013778,0.96484510,3.3182,09/30.0/2016,2000,g 11.5,4.0
# From MPC 74248
C/2010 L5 (WISE),e,146.8614,206.3710,214.3417,8.027276,0.0433363,0.90275842,101.9654,09/30.0/2016,2000,g 18.0,4.0
# From MPC 70817
C/2010 M1 (Gibbs),p,02/07.840/2012,78.373,265.318,2.29869,82.150,2000,9.0,4.0
# From MPC 73463
P/2010 P4 (WISE),e,24.0790,2.2340,354.1633,3.704314,0.1382428,0.49767480,315.4430,09/30.0/2016,2000,g 19.5,6.0
# From MPC 88325
C/2010 R1 (LINEAR),e,156.9259,343.6795,114.5374,7192,0.0000016,0.99921691,0.0000,05/16.7853/2012,2000,g  6.0,4.0
# From MPC 95208
C/2010 S1 (LINEAR),h,05/19.5687/2013,125.3207,93.4350,118.5417,1.002394,5.896260,2000,3.5,4.0
# From MPC 74248
P/2010 T2 (PANSTARRS),e,8.0315,59.5718,355.7836,5.489925,0.0766222,0.31628599,146.6258,09/30.0/2016,2000,g 11.5,4.0
# From MPC 81468
P/2010 TO20 (LINEAR-Grauer),e,2.4820,43.2805,271.2874,5.804331,0.0704816,0.05365862,197.8223,09/30.0/2016,2000,g  9.0,4.0
# From MPC 82316
P/2010 U1 (Boattini),e,8.2175,280.7722,86.3190,6.516724,0.0592461,0.24733850,144.0731,09/30.0/2016,2000,g  9.5,4.0
# From MPC 74249
P/2010 U2 (Hill),e,16.8289,357.0978,44.3958,4.282319,0.1112207,0.40042184,239.7850,09/30.0/2016,2000,g 13.0,4.0
# From MPC101094
C/2010 U3 (Boattini),h,02/25.6123/2019,55.5079,43.0670,88.0473,1.001742,8.446502,2000,1.0,4.0
# From MPC 79021
P/2010 UH55 (Spacewatch),e,8.5952,235.1030,222.6196,6.580311,0.0583895,0.57578913,114.5420,09/30.0/2016,2000,g 11.0,4.0
# From MPC 75009
P/2010 WK (LINEAR),e,11.4176,11.4066,41.1544,5.752195,0.0714420,0.68972405,155.5037,09/30.0/2016,2000,g 14.5,2.0
# From MPC 76025
C/2010 X1 (Elenin),e,1.8688,322.2350,344.4139,467.6556,0.0000975,0.99898690,0.0000,09/09.4834/2011,2000,g 10.0,4.0
# From MPC 82317
P/2011 A2 (Scotti),e,4.4755,54.6727,94.6415,3.105098,0.1801321,0.49990990,19.4529,09/30.0/2016,2000,g 16.5,4.0
# From MPC 85831
C/2011 A3 (Gibbs),e,26.0805,124.8350,141.0236,741.5688,0.0000488,0.99685315,0.0000,12/16.7225/2011,2000,g 10.0,4.0
# From MPC 82317
C/2011 C1 (McNaught),e,16.3106,191.2550,85.6864,491.2593,0.0000905,0.99820406,0.0000,04/17.7515/2011,2000,g 15.5,4.0
# From MPC 84021
P/2011 C2 (Gibbs),e,10.8906,12.0976,160.9729,7.402011,0.0489417,0.27130201,84.3399,09/30.0/2016,2000,g  9.0,4.0
# From MPC 75516
C/2011 C3 (Gibbs),e,49.5317,20.8292,206.7543,293.6499,0.0001959,0.99485421,0.0000,04/08.6702/2011,2000,g 17.0,4.0
# From MPC 86639
P/2011 CR42 (Catalina),e,8.4642,58.7288,173.2774,3.505604,0.1501619,0.28079312,265.2040,09/30.0/2016,2000,g 13.0,2.0
# From MPC 89309
C/2011 F1 (LINEAR),e,56.6806,85.0458,192.4822,2160,0.0000098,0.99915980,0.0000,01/08.0414/2013,2000,g  5.0,4.0
# From MPC 79866
P/2011 FR143 (Lemmon),e,16.0196,190.9191,350.0633,6.839658,0.0551001,0.45394817,111.7914,09/30.0/2016,2000,g 14.0,2.0
# From MPC 80044
C/2011 G1 (McNaught),h,09/16.1963/2011,162.2328,153.0081,355.0803,1.000918,2.164078,2000,12.0,4.0
# From MPC101094
C/2011 J2 (LINEAR),h,12/25.7498/2013,122.7991,163.9429,85.3228,1.001592,3.442836,2000,5.5,3.6
# From MPEC 2015-K84
C/2011 J2-B (LINEAR),h,12/25.6270/2013,122.8018,163.9393,85.2802,1.002353,3.442038,2000,9.0,3.6
# From unp
C/2011 J2-C (LINEAR),h,12/25.7195/2013,122.7971,163.9445,85.2974,1.002389,3.441875,2000,11.0,3.6
# From MPC 75713
C/2011 J3 (LINEAR),e,114.4276,21.5770,27.8321,19.60587,0.0113534,0.92613182,23.5759,09/30.0/2016,2000,g 15.0,4.0
# From MPC 82317
P/2011 JB15 (Spacewatch-Boattini),e,19.1553,153.7297,110.5664,7.343634,0.0495265,0.31814904,84.9760,09/30.0/2016,2000,g  9.0,4.0
# From MPC 75516
C/2011 K1 (Schwartz-Holvorcem),e,122.6105,70.6228,166.8880,3428,0.0000049,0.99901609,0.0000,04/20.0249/2011,2000,g 12.0,4.0
# From MPC101094
C/2011 KP36 (Spacewatch),e,18.9866,173.4002,180.5872,38.41968,0.0041388,0.87289715,0.5223,09/30.0/2016,2000,g  4.5,4.0
# From MPC 83518
C/2011 L1 (McNaught),e,65.4887,252.2093,294.4301,11.02946,0.0269075,0.79726514,56.8272,09/30.0/2016,2000,g 11.0,4.0
# From MPC 78588
C/2011 L2 (McNaught),e,104.3351,131.3925,257.0101,5699,0.0000023,0.99965806,0.0000,10/30.0178/2011,2000,g 12.5,4.0
# From MPC 77405
